[{"OBJECT_NAME":"STARLINK-32198","OBJECT_ID":"2024-133W","EPOCH":"2026-03-09T21:49:44.612832","MEAN_MOTION":15.30191124,"ECCENTRICITY":0.00012456,"INCLINATION":53.1597,"RA_OF_ASC_NODE":296.0649,"ARG_OF_PERICENTER":76.389,"MEAN_ANOMALY":283.7249,"EPHEMERIS_TYPE":0,"CLASSIFICATION_TYPE":"U","NORAD_CAT_ID":60321,"ELEMENT_SET_NO":999,"REV_AT_EPOCH":9176,"BSTAR":2.2201034e-5,"MEAN_MOTION_DOT":2.98e-6,"MEAN_MOTION_DDOT":0},{"OBJECT_NAME":"OBJECT A","OBJECT_ID":"2025-234A","EPOCH":"2026-03-09T23:03:34.210368","MEAN_MOTION":15.32505956,"ECCENTRICITY":0.00130678,"INCLINATION":97.4388,"RA_OF_ASC_NODE":139.352,"ARG_OF_PERICENTER":148.634,"MEAN_ANOMALY":211.5684,"EPHEMERIS_TYPE":0,"CLASSIFICATION_TYPE":"U","NORAD_CAT_ID":66053,"ELEMENT_SET_NO":999,"REV_AT_EPOCH":2164,"BSTAR":0.0014840662,"MEAN_MOTION_DOT":0.00046856,"MEAN_MOTION_DDOT":0}]
